[{"OBJECT_NAME":"STARLINK-5621","OBJECT_ID":"2023-014AV","EPOCH":"2026-03-09T12:37:34.475808","MEAN_MOTION":14.98333744,"ECCENTRICITY":0.0003527,"INCLINATION":69.9991,"RA_OF_ASC_NODE":104.894,"ARG_OF_PERICENTER":271.7777,"MEAN_ANOMALY":88.2979,"EPHEMERIS_TYPE":0,"CLASSIFICATION_TYPE":"U","NORAD_CAT_ID":55434,"ELEMENT_SET_NO":999,"REV_AT_EPOCH":17104,"BSTAR":0.00010844512,"MEAN_MOTION_DOT":1.201e-5,"MEAN_MOTION_DDOT":0},{"OBJECT_NAME":"IRIDIUM 33 DEB","OBJECT_ID":"1997-051VK","EPOCH":"2026-03-08T19:51:10.655424","MEAN_MOTION":15.00290565,"ECCENTRICITY":0.00168472,"INCLINATION":86.319,"RA_OF_ASC_NODE":266.0445,"ARG_OF_PERICENTER":92.2879,"MEAN_ANOMALY":268.0282,"EPHEMERIS_TYPE":0,"CLASSIFICATION_TYPE":"U","NORAD_CAT_ID":36028,"ELEMENT_SET_NO":999,"REV_AT_EPOCH":88413,"BSTAR":0.0028450528,"MEAN_MOTION_DOT":0.00035903,"MEAN_MOTION_DDOT":0}]
